HIMAWARI-8              
1 40267U 14060A   24011.89453711 -.00000263  00000+0  00000+0 0  9996
2 40267   0.0363 221.5960 0000697  94.2419 257.7340  1.00271044 33866
